QIANFAN-9               
1 60387U 24140J   25205.81298952  .00000124  00000+0  17375-3 0  9995
2 60387  88.9849 313.8889 0014723 239.9848 119.9842 13.50954625 48299
QIANFAN-10              
1 60388U 24140K   25205.74307326  .00000124  00000+0  17313-3 0  9996
2 60388  88.9859 313.2306 0013859 215.0756 144.9484 13.50957076 48676
QIANFAN-11              
1 60389U 24140L   25205.78006762  .00000123  00000+0  17184-3 0  9996
2 60389  88.9785 313.9183 0012762 239.0343 120.9555 13.50957124 48177
QIANFAN-12              
1 60390U 24140M   25205.72652029  .00000113  00000+0  15666-3 0  9997
2 60390  88.9828 313.9056 0011398 247.8926 112.1015 13.50956899 48244
QIANFAN-13              
1 60391U 24140N   25205.77180107  .00000124  00000+0  17370-3 0  9992
2 60391  88.9840 313.9834 0011167 250.7434 109.2509 13.50956736 48227
QIANFAN-14              
1 60392U 24140P   25205.72238058  .00000121  00000+0  16951-3 0  9998
2 60392  88.9819 313.9163 0014840 252.0517 107.9016 13.50957851 48224
QIANFAN-15              
1 60393U 24140Q   25205.73072645  .00000125  00000+0  17572-3 0  9992
2 60393  88.9843 313.8386 0010962 234.8446 125.1678 13.50954692 48303
QIANFAN-16              
1 60394U 24140R   25205.79243350  .00000118  00000+0  16372-3 0  9991
2 60394  88.9846 313.9479 0012707 255.7439 104.2301 13.50956994 48267
